EXPRESS-AM44            
1 33595U 09007A   12354.25168991 -.00000094  00000-0  10000-3 0   547
2 33595   0.0039 266.1105 0000952  87.1912 174.5423  1.00270919 14150
EXPRESS-MD1             
1 33596U 09007B   12354.99012919 -.00000140  00000-0  10000-3 0  1034
2 33596   0.0120 274.0479 0001677   0.7192 250.7351  1.00272330 14190
NSS-9                   
1 33749U 09008A   12354.71941727  .00000067  00000-0  00000+0 0  7806
2 33749   0.0172 328.1133 0002181 274.1465 288.4055  1.00272035 14153
EUTELSAT 3C             
1 33750U 09008B   12355.02839690  .00000017  00000-0  10000-3 0  8708
2 33750   0.0649 346.5911 0003392 253.0236 222.6975  1.00272063 14195
TELSTAR 11N             
1 34111U 09009A   12354.15774162 -.00000256  00000-0  10000-3 0  7082
2 34111   0.0013 350.5155 0002600 254.3848 222.4761  1.00270392 14005
RADUGA-1 8              
1 34264U 09010A   12354.19066780  .00000073  00000-0  10000-3 0   738
2 34264   2.3857  93.6058 0001906 173.8405 260.7980  1.00271243 13939
EUTELSAT 10A            
1 34710U 09016A   12354.75504924  .00000065  00000-0  10000-3 0  7535
2 34710   0.0656 344.0708 0005078 281.9731 104.5162  1.00273735 13664
BEIDOU G2               
1 34779U 09018A   12353.88035653  .00000136  00000-0  10000-3 0  8195
2 34779   2.1762  69.9028 0057802 168.3652 191.2661  1.00305635 13673
SICRAL 1B               
1 34810U 09020A   12353.00371750  .00000072  00000-0  10000-3 0  6961
2 34810   0.1260  83.1383 0002868 203.2597 173.6880  1.00273297 13508
SES-7 (PROTOSTAR 2)     
1 34941U 09027A   12354.61645701 -.00000349  00000-0  10000-3 0  7735
2 34941   0.0219 296.7471 0000741 299.7448 182.2311  1.00270091 13222
MEASAT-3A               
1 35362U 09032A   12354.77020456 -.00000245  00000-0  10000-3 0  4800
2 35362   0.0094 297.4754 0003240 333.0141 187.0436  1.00271335 12831
GOES 14                 
1 35491U 09033A   12354.29273711 -.00000185  00000-0  10000-3 0  7564
2 35491   0.1651 261.5736 0005236 279.7845 282.6190  1.00264448 12779
SIRIUS FM-5             
1 35493U 09034A   12354.29769429 -.00000150  00000-0  10000-3 0  5844
2 35493   0.0023 339.5885 0001518  40.4717  79.3957  1.00270665 12752
TERRESTAR-1             
1 35496U 09035A   12354.18051333 -.00000063  00000-0  10000-3 0  7737
2 35496   4.4052 324.8870 0002925 298.2036 139.0818  1.00272029 12763
ASIASAT 5               
1 35696U 09042A   12354.94544700 -.00000311  00000-0  10000-3 0  9453
2 35696   0.0164 324.4805 0001732 260.2712 305.0179  1.00273648 12303
JCSAT-RA (JCSAT-12)     
1 35755U 09044A   12353.76973683 -.00000351  00000-0  10000-3 0  6110
2 35755   0.0547  43.7318 0001504 158.4333 290.6345  1.00270174 12246
OPTUS D3                
1 35756U 09044B   12354.45520512 -.00000151  00000-0  10000-3 0  6340
2 35756   0.0419 341.0337 0003382 291.9202 135.3825  1.00272322 12238
PALAPA D                
1 35812U 09046A   12354.75913197 -.00000361  00000-0  10000-3 0  6425
2 35812   0.0178  48.8652 0001995 245.6759 180.4402  1.00269604 12271
NIMIQ 5                 
1 35873U 09050A   12352.31024560 -.00000265  00000-0  10000-3 0  6359
2 35873   0.0173  37.6808 0001858 229.3529 218.2872  1.00270592 11935
AMAZONAS 2              
1 35942U 09054A   12354.38706219 -.00000287  00000-0  10000-3 0  5811
2 35942   0.0504 154.8204 0003030  61.2020 310.6897  1.00269927 11805
COMSATBW-1              
1 35943U 09054B   12354.99937463  .00000022  00000-0  10000-3 0  6093
2 35943   0.0195 210.9793 0002298  34.2514 266.4997  1.00269492 11853
NSS-12                  
1 36032U 09058A   12352.00589848  .00000063  00000-0  10000-3 0  5866
2 36032   0.0157   1.9470 0002357 249.9586 253.2498  1.00272215 11511
THOR 6                  
1 36033U 09058B   12355.03058986 -.00000013  00000-0  10000-3 0  6538
2 36033   0.0018 277.9633 0001788 323.8182 217.3914  1.00270817 11560
INTELSAT 14 (IS-14)     
1 36097U 09064A   12353.14138618 -.00000281  00000-0  10000-3 0  4755
2 36097   0.0180 314.3816 0001456 313.3545 185.3016  1.00270387 11286
EUTELSAT 36B            
1 36101U 09065A   12354.68396953  .00000151  00000-0  10000-3 0  6599
2 36101   0.0630 351.2720 0004171 266.7984 112.7594  1.00274630 11405
INTELSAT 15 (IS-15)     
1 36106U 09067A   12353.10000000 -.00000192  00000-0  00000+0 0  6723
2 36106   0.0170  22.1340 0002192 246.8170 299.2980  1.00271969 11174
DIRECTV 12              
1 36131U 09075A   12354.25543203 -.00000108  00000-0  10000-3 0  8234
2 36131   0.0388 195.2905 0000545 342.1808 259.9730  1.00270881 10975
BEIDOU G1               
1 36287U 10001A   12354.78905243 -.00000288  00000-0  10000-3 0  8331
2 36287   1.5936 355.3281 0002869 242.2462 275.3372  1.00272167 10776
RADUGA-1M 2             
1 36358U 10002A   12353.97966653 -.00000189  00000-0  00000+0 0  8440
2 36358   0.0199 346.4596 0002699 267.3464 271.8310  1.00269667 10595
SDO                     
1 36395U 10005A   12354.22064757 -.00000027  00000-0  10000-3 0  6362
2 36395  27.8257 170.5956 0000816 335.8191 279.5354  1.00272484 10641
INTELSAT 16 (IS-16)     
1 36397U 10006A   12353.43402826 -.00000291  00000-0  10000-3 0  5777
2 36397   0.0218  33.5354 0002049 219.2931 292.7649  1.00271400 10427
GOES 15                 
1 36411U 10008A   12355.31631838  .00000088  00000-0  10000-3 0  3661
2 36411   0.1862 258.2072 0002514  13.0754 156.4138  1.00270910 10281
ECHOSTAR 14             
1 36499U 10010A   12355.42056928 -.00000002  00000-0  10000-3 0  7372
2 36499   0.0014 321.1816 0002835 302.0966 218.6272  1.00272131 10134
SES-1                   
1 36516U 10016A   12354.25841984 -.00000119  00000-0  10000-3 0  6291
2 36516   0.0147 355.9601 0002197 267.0070 177.3069  1.00270919  9725
ASTRA 3B                
1 36581U 10021A   12354.98367644  .00000134  00000-0  00000+0 0  4957
2 36581   0.0448 303.8186 0001502 271.7032 251.0735  1.00274266  9572
COMSATBW-2              
1 36582U 10021B   12354.95716826  .00000086  00000-0  10000-3 0  5722
2 36582   0.0679  79.3296 0001455 200.7894 166.6581  1.00275872  9586
BEIDOU G3               
1 36590U 10024A   12353.97747611 -.00000360  00000-0  10000-3 0  6740
2 36590   1.2688  14.2016 0003920 309.1456 226.9818  1.00265650  9365
BADR-5                  
1 36592U 10025A   12353.11418294  .00000137  00000-0  10000-3 0  4201
2 36592   0.0407  93.1298 0004402 126.1094 294.9767  1.00270289  9498
COMS 1                  
1 36744U 10032A   12353.76973885 -.00000350  00000-0  10000-3 0  4973
2 36744   0.0370  55.6296 0000474 178.3148 259.1794  1.00271386  9235
ARABSAT-5A              
1 36745U 10032B   12352.87619839  .00000146  00000-0  10000-3 0  4513
2 36745   0.0563 353.3012 0002761 267.7505 171.7464  1.00272227  9255
ECHOSTAR 15             
1 36792U 10034A   12355.33111009 -.00000284  00000-0  10000-3 0  5422
2 36792   0.0232 318.3407 0001999 314.8570 233.6727  1.00271483  8990
BEIDOU IGSO 1           
1 36828U 10036A   12354.78443674 -.00000100  00000-0  10000-3 0  6246
2 36828  54.6275 209.8132 0029034 178.5356 103.1324  1.00279921  8807
NILESAT 201             
1 36830U 10037A   12353.32559103 -.00000065  00000-0  10000-3 0  4668
2 36830   0.0489 164.6149 0004986  78.6589 314.2562  1.00271316  8860
RASCOM-QAF 1R           
1 36831U 10037B   12352.92902914  .00000011  00000-0  10000-3 0  4385
2 36831   0.0240  41.3818 0003921 226.4117 156.4938  1.00272471  8864
CHINASAT 6A (ZX 6A)     
1 37150U 10042A   12354.44023537 -.00000359  00000-0  10000-3 0  6490
2 37150   0.0445 207.3001 0002593 234.4265 290.1881  1.00265886  8529
XM-5                    
1 37185U 10053A   12354.45038919 -.00000209  00000-0  10000-3 0  5450
2 37185   0.0030 350.6837 0002367 165.7967   8.8599  1.00270028  8041
BSAT-3B                 
1 37207U 10056B   12353.97747611 -.00000355  00000-0  10000-3 0  5014
2 37207   0.6250  75.0121 0001470 267.3762 207.1252  1.00270163  7876
BEIDOU G4               
1 37210U 10057A   12354.46532666 -.00000117  00000-0  10000-3 0  5742
2 37210   0.5214 344.7619 0005461 228.8692 202.3098  1.00271948  7894
SKYTERRA 1              
1 37218U 10061A   12354.48995060 -.00000126  00000-0  10000-3 0  5636
2 37218   5.1596 321.5104 0004922 178.1259  23.9236  1.00270440  7814
ZHONGXING-20A           
1 37234U 10064A   12354.79340443 -.00000340  00000-0  10000-3 0  5672
2 37234   0.0263 236.7551 0003020  80.8325 186.8574  1.00273271  7641
HYLAS 1                 
1 37237U 10065A   12354.25959422 -.00000238  00000-0  10000-3 0  4552
2 37237   0.0347 303.5549 0001559 351.2426 213.3946  1.00272208  7591
INTELSAT 17 (IS-17)     
1 37238U 10065B   12352.86389472 -.00000009  00000-0  10000-3 0  3735
2 37238   0.0140  27.1818 0002466 242.4223 194.2645  1.00271550  7609
BEIDOU IGSO 2           
1 37256U 10068A   12354.87258492 -.00000245  00000-0  10000-3 0  5248
2 37256  54.7981 330.1404 0023648 194.5388 356.0384  1.00298738  7391
EUTELSAT KA-SAT 9A      
1 37258U 10069A   12354.74936617  .00000057  00000-0  10000-3 0  4721
2 37258   0.0396 306.1989 0000451 218.5418 202.7155  1.00268601  7418
HISPASAT 1E             
1 37264U 10070A   12353.90000000 -.00000222  00000-0  00000+0 0  4499
2 37264   0.0410 114.2930 0002691 103.1270 164.4860  1.00271742  7258
KOREASAT 6              
1 37265U 10070B   12354.75685584 -.00000366  00000-0  10000-3 0  3932
2 37265   0.0267 238.5148 0001883  81.2979 157.4049  1.00269589  7284
ELEKTRO-L 1 (GOMS 2)    
1 37344U 11001A   12355.13069377 -.00000100  00000-0  10000-3 0  4986
2 37344   0.0238 222.4391 0001905 353.5607 356.2267  1.00271282  7071
BEIDOU IGSO 3           
1 37384U 11013A   12354.58788291 -.00000178  00000-0  10000-3 0  4383
2 37384  55.9316  90.1520 0026351 178.3861 149.5659  1.00249640  6263
INTELSAT NEW DAWN       
1 37392U 11016A   12354.67936593  .00000152  00000-0  10000-3 0  3598
2 37392   0.0154  50.3865 0000908  50.4094 265.2497  1.00273235  6130
YAHSAT 1A               
1 37393U 11016B   12355.06222135  .00000098  00000-0  10000-3 0  4638
2 37393   0.0005 327.6208 0001167 331.5601 224.7415  1.00272641  6176
